HULIANWANG DIGUI-01     
1 62323U 24240A   26065.25274370  .00000061  00000+0  10773-3 0  9994
2 62323  86.5032  17.9401 0001950  85.6215 274.5142 13.24420607 59015
HULIANWANG DIGUI-02     
1 62324U 24240B   26065.26020392  .00000065  00000+0  11707-3 0  9991
2 62324  86.5061  18.0679 0001880  89.3214 270.8135 13.24422189 59028
HULIANWANG DIGUI-03     
1 62325U 24240C   26065.24507105  .00000060  00000+0  10637-3 0  9998
2 62325  86.5014  17.8621 0002027  84.1648 275.9718 13.24422222 59019
HULIANWANG DIGUI-04     
1 62326U 24240D   26065.23754967  .00000045  00000+0  70098-4 0  9999
2 62326  86.5024  17.8964 0002061  84.9617 275.1752 13.24421890 59013
HULIANWANG DIGUI-05     
1 62327U 24240E   26065.30559158  .00000046  00000+0  73116-4 0  9998
2 62327  86.5076  18.0935 0002085  83.8819 276.2553 13.24421144 59024
HULIANWANG DIGUI-06     
1 62328U 24240F   26065.29038067  .00000069  00000+0  12587-3 0  9997
2 62328  86.5014  17.8167 0002048  88.1789 271.9579 13.24423063 59026
HULIANWANG DIGUI-07     
1 62329U 24240G   26065.28292423  .00000074  00000+0  13772-3 0  9998
2 62329  86.4985  17.6872 0002032  86.4829 273.6538 13.24421162 59025
HULIANWANG DIGUI-08     
1 62330U 24240H   26065.29805367  .00000056  00000+0  96235-4 0  9994
2 62330  86.5068  18.0533 0002137  84.9107 275.2271 13.24421063 59029
HULIANWANG DIGUI-09     
1 62331U 24240J   26065.27529699  .00000079  00000+0  14945-3 0  9996
2 62331  86.5033  17.9558 0001989  88.6865 271.4497 13.24422375 59017
HULIANWANG DIGUI-10     
1 62332U 24240K   26065.26778310  .00000077  00000+0  14486-3 0  9990
2 62332  86.5063  18.0812 0001985  90.5132 269.6229 13.24421751 59010
HULIANWANG DIGUI-11     
1 62971U 25030A   26065.23945843 -.00000084  00000+0  86086-4 0  9996
2 62971  49.9992 245.0727 0000749 170.5642 189.5244 13.29337894 52167
HULIANWANG DIGUI-12     
1 62972U 25030B   26065.24769768 -.00000089  00000+0  75572-4 0  9991
2 62972  50.0008 245.1622 0000879 164.8400 195.2499 13.29339982 52162
HULIANWANG DIGUI-13     
1 62973U 25030C   26065.23107308 -.00000094  00000+0  63707-4 0  9990
2 62973  50.0011 245.0876 0000717 157.3027 202.7877 13.29337986 52166
HULIANWANG DIGUI-14     
1 62974U 25030D   26065.28125097 -.00000085  00000+0  83535-4 0  9992
2 62974  50.0017 244.7058 0000793 156.2817 203.8092 13.29337826 52175
HULIANWANG DIGUI-15     
1 62975U 25030E   26065.22275496 -.00000086  00000+0  82252-4 0  9992
2 62975  50.0012 245.0469 0000702 164.7297 195.3597 13.29338040 52160
HULIANWANG DIGUI-16     
1 62976U 25030F   26065.27284685 -.00000096  00000+0  59493-4 0  9990
2 62976  50.0034 244.7151 0000796 154.0043 206.0869 13.29338480 52174
