[{"OBJECT_NAME":"HULIANWANG DIGUI-01","OBJECT_ID":"2024-240A","EPOCH":"2026-03-06T06:03:57.055680","MEAN_MOTION":13.24420607,"ECCENTRICITY":0.00019503,"INCLINATION":86.5032,"RA_OF_ASC_NODE":17.9401,"ARG_OF_PERICENTER":85.6215,"MEAN_ANOMALY":274.5142,"EPHEMERIS_TYPE":0,"CLASSIFICATION_TYPE":"U","NORAD_CAT_ID":62323,"ELEMENT_SET_NO":999,"REV_AT_EPOCH":5901,"BSTAR":0.00010773061,"MEAN_MOTION_DOT":6.1e-7,"MEAN_MOTION_DDOT":0},{"OBJECT_NAME":"HULIANWANG DIGUI-02","OBJECT_ID":"2024-240B","EPOCH":"2026-03-06T06:14:41.618688","MEAN_MOTION":13.24422189,"ECCENTRICITY":0.00018807,"INCLINATION":86.5061,"RA_OF_ASC_NODE":18.0679,"ARG_OF_PERICENTER":89.3214,"MEAN_ANOMALY":270.8135,"EPHEMERIS_TYPE":0,"CLASSIFICATION_TYPE":"U","NORAD_CAT_ID":62324,"ELEMENT_SET_NO":999,"REV_AT_EPOCH":5902,"BSTAR":0.00011706586,"MEAN_MOTION_DOT":6.5e-7,"MEAN_MOTION_DDOT":0},{"OBJECT_NAME":"HULIANWANG DIGUI-03","OBJECT_ID":"2024-240C","EPOCH":"2026-03-06T05:52:54.138720","MEAN_MOTION":13.24422222,"ECCENTRICITY":0.00020279,"INCLINATION":86.5014,"RA_OF_ASC_NODE":17.8621,"ARG_OF_PERICENTER":84.1648,"MEAN_ANOMALY":275.9718,"EPHEMERIS_TYPE":0,"CLASSIFICATION_TYPE":"U","NORAD_CAT_ID":62325,"ELEMENT_SET_NO":999,"REV_AT_EPOCH":5901,"BSTAR":0.00010636924,"MEAN_MOTION_DOT":6.0e-7,"MEAN_MOTION_DDOT":0},{"OBJECT_NAME":"HULIANWANG DIGUI-04","OBJECT_ID":"2024-240D","EPOCH":"2026-03-06T05:42:04.291488","MEAN_MOTION":13.2442189,"ECCENTRICITY":0.0002061,"INCLINATION":86.5024,"RA_OF_ASC_NODE":17.8964,"ARG_OF_PERICENTER":84.9617,"MEAN_ANOMALY":275.1752,"EPHEMERIS_TYPE":0,"CLASSIFICATION_TYPE":"U","NORAD_CAT_ID":62326,"ELEMENT_SET_NO":999,"REV_AT_EPOCH":5901,"BSTAR":7.0097576e-5,"MEAN_MOTION_DOT":4.5e-7,"MEAN_MOTION_DDOT":0},{"OBJECT_NAME":"HULIANWANG DIGUI-05","OBJECT_ID":"2024-240E","EPOCH":"2026-03-06T07:20:03.112512","MEAN_MOTION":13.24421144,"ECCENTRICITY":0.00020857,"INCLINATION":86.5076,"RA_OF_ASC_NODE":18.0935,"ARG_OF_PERICENTER":83.8819,"MEAN_ANOMALY":276.2553,"EPHEMERIS_TYPE":0,"CLASSIFICATION_TYPE":"U","NORAD_CAT_ID":62327,"ELEMENT_SET_NO":999,"REV_AT_EPOCH":5902,"BSTAR":7.3115707e-5,"MEAN_MOTION_DOT":4.6e-7,"MEAN_MOTION_DDOT":0},{"OBJECT_NAME":"HULIANWANG DIGUI-06","OBJECT_ID":"2024-240F","EPOCH":"2026-03-06T06:58:08.889888","MEAN_MOTION":13.24423063,"ECCENTRICITY":0.00020487,"INCLINATION":86.5014,"RA_OF_ASC_NODE":17.8167,"ARG_OF_PERICENTER":88.1789,"MEAN_ANOMALY":271.9579,"EPHEMERIS_TYPE":0,"CLASSIFICATION_TYPE":"U","NORAD_CAT_ID":62328,"ELEMENT_SET_NO":999,"REV_AT_EPOCH":5902,"BSTAR":0.0001258701,"MEAN_MOTION_DOT":6.9e-7,"MEAN_MOTION_DDOT":0},{"OBJECT_NAME":"HULIANWANG DIGUI-07","OBJECT_ID":"2024-240G","EPOCH":"2026-03-06T06:47:24.653472","MEAN_MOTION":13.24421162,"ECCENTRICITY":0.00020321,"INCLINATION":86.4985,"RA_OF_ASC_NODE":17.6872,"ARG_OF_PERICENTER":86.4829,"MEAN_ANOMALY":273.6538,"EPHEMERIS_TYPE":0,"CLASSIFICATION_TYPE":"U","NORAD_CAT_ID":62329,"ELEMENT_SET_NO":999,"REV_AT_EPOCH":5902,"BSTAR":0.00013772319,"MEAN_MOTION_DOT":7.4e-7,"MEAN_MOTION_DDOT":0},{"OBJECT_NAME":"HULIANWANG DIGUI-08","OBJECT_ID":"2024-240H","EPOCH":"2026-03-06T07:09:11.837088","MEAN_MOTION":13.24421063,"ECCENTRICITY":0.00021374,"INCLINATION":86.5068,"RA_OF_ASC_NODE":18.0533,"ARG_OF_PERICENTER":84.9107,"MEAN_ANOMALY":275.2271,"EPHEMERIS_TYPE":0,"CLASSIFICATION_TYPE":"U","NORAD_CAT_ID":62330,"ELEMENT_SET_NO":999,"REV_AT_EPOCH":5902,"BSTAR":9.6235062e-5,"MEAN_MOTION_DOT":5.6e-7,"MEAN_MOTION_DDOT":0},{"OBJECT_NAME":"HULIANWANG DIGUI-09","OBJECT_ID":"2024-240J","EPOCH":"2026-03-06T06:36:25.659936","MEAN_MOTION":13.24422375,"ECCENTRICITY":0.00019899,"INCLINATION":86.5033,"RA_OF_ASC_NODE":17.9558,"ARG_OF_PERICENTER":88.6865,"MEAN_ANOMALY":271.4497,"EPHEMERIS_TYPE":0,"CLASSIFICATION_TYPE":"U","NORAD_CAT_ID":62331,"ELEMENT_SET_NO":999,"REV_AT_EPOCH":5901,"BSTAR":0.00014944596,"MEAN_MOTION_DOT":7.9e-7,"MEAN_MOTION_DDOT":0},{"OBJECT_NAME":"HULIANWANG DIGUI-10","OBJECT_ID":"2024-240K","EPOCH":"2026-03-06T06:25:36.459840","MEAN_MOTION":13.24421751,"ECCENTRICITY":0.00019852,"INCLINATION":86.5063,"RA_OF_ASC_NODE":18.0812,"ARG_OF_PERICENTER":90.5132,"MEAN_ANOMALY":269.6229,"EPHEMERIS_TYPE":0,"CLASSIFICATION_TYPE":"U","NORAD_CAT_ID":62332,"ELEMENT_SET_NO":999,"REV_AT_EPOCH":5901,"BSTAR":0.00014486256,"MEAN_MOTION_DOT":7.7e-7,"MEAN_MOTION_DDOT":0},{"OBJECT_NAME":"HULIANWANG DIGUI-11","OBJECT_ID":"2025-030A","EPOCH":"2026-03-06T05:44:49.208352","MEAN_MOTION":13.29337894,"ECCENTRICITY":7.495e-5,"INCLINATION":49.9992,"RA_OF_ASC_NODE":245.0727,"ARG_OF_PERICENTER":170.5642,"MEAN_ANOMALY":189.5244,"EPHEMERIS_TYPE":0,"CLASSIFICATION_TYPE":"U","NORAD_CAT_ID":62971,"ELEMENT_SET_NO":999,"REV_AT_EPOCH":5216,"BSTAR":8.6085609e-5,"MEAN_MOTION_DOT":-8.4e-7,"MEAN_MOTION_DDOT":0},{"OBJECT_NAME":"HULIANWANG DIGUI-12","OBJECT_ID":"2025-030B","EPOCH":"2026-03-06T05:56:41.079552","MEAN_MOTION":13.29339982,"ECCENTRICITY":8.797e-5,"INCLINATION":50.0008,"RA_OF_ASC_NODE":245.1622,"ARG_OF_PERICENTER":164.84,"MEAN_ANOMALY":195.2499,"EPHEMERIS_TYPE":0,"CLASSIFICATION_TYPE":"U","NORAD_CAT_ID":62972,"ELEMENT_SET_NO":999,"REV_AT_EPOCH":5216,"BSTAR":7.557159e-5,"MEAN_MOTION_DOT":-8.9e-7,"MEAN_MOTION_DDOT":0},{"OBJECT_NAME":"HULIANWANG DIGUI-13","OBJECT_ID":"2025-030C","EPOCH":"2026-03-06T05:32:44.714112","MEAN_MOTION":13.29337986,"ECCENTRICITY":7.174e-5,"INCLINATION":50.0011,"RA_OF_ASC_NODE":245.0876,"ARG_OF_PERICENTER":157.3027,"MEAN_ANOMALY":202.7877,"EPHEMERIS_TYPE":0,"CLASSIFICATION_TYPE":"U","NORAD_CAT_ID":62973,"ELEMENT_SET_NO":999,"REV_AT_EPOCH":5216,"BSTAR":6.3707471e-5,"MEAN_MOTION_DOT":-9.4e-7,"MEAN_MOTION_DDOT":0},{"OBJECT_NAME":"HULIANWANG DIGUI-14","OBJECT_ID":"2025-030D","EPOCH":"2026-03-06T06:45:00.083808","MEAN_MOTION":13.29337826,"ECCENTRICITY":7.936e-5,"INCLINATION":50.0017,"RA_OF_ASC_NODE":244.7058,"ARG_OF_PERICENTER":156.2817,"MEAN_ANOMALY":203.8092,"EPHEMERIS_TYPE":0,"CLASSIFICATION_TYPE":"U","NORAD_CAT_ID":62974,"ELEMENT_SET_NO":999,"REV_AT_EPOCH":5217,"BSTAR":8.3534927e-5,"MEAN_MOTION_DOT":-8.5e-7,"MEAN_MOTION_DDOT":0},{"OBJECT_NAME":"HULIANWANG DIGUI-15","OBJECT_ID":"2025-030E","EPOCH":"2026-03-06T05:20:46.028544","MEAN_MOTION":13.2933804,"ECCENTRICITY":7.028e-5,"INCLINATION":50.0012,"RA_OF_ASC_NODE":245.0469,"ARG_OF_PERICENTER":164.7297,"MEAN_ANOMALY":195.3597,"EPHEMERIS_TYPE":0,"CLASSIFICATION_TYPE":"U","NORAD_CAT_ID":62975,"ELEMENT_SET_NO":999,"REV_AT_EPOCH":5216,"BSTAR":8.2251879e-5,"MEAN_MOTION_DOT":-8.6e-7,"MEAN_MOTION_DDOT":0},{"OBJECT_NAME":"HULIANWANG DIGUI-16","OBJECT_ID":"2025-030F","EPOCH":"2026-03-06T06:32:53.967840","MEAN_MOTION":13.2933848,"ECCENTRICITY":7.969e-5,"INCLINATION":50.0034,"RA_OF_ASC_NODE":244.7151,"ARG_OF_PERICENTER":154.0043,"MEAN_ANOMALY":206.0869,"EPHEMERIS_TYPE":0,"CLASSIFICATION_TYPE":"U","NORAD_CAT_ID":62976,"ELEMENT_SET_NO":999,"REV_AT_EPOCH":5217,"BSTAR":5.9492899e-5,"MEAN_MOTION_DOT":-9.6e-7,"MEAN_MOTION_DDOT":0}]
